{
  "type" : "FeatureCollection",
  "features" : [{"type":"Feature","id":1,"geometry":{"type":"MultiLineString","coordinates":[[[-79.471335983341149,43.631788687286658],[-79.471333110011685,43.631791976969438],[-79.470919210700771,43.632293677174012],[-79.470918509797272,43.632294477308953],[-79.470860210048528,43.63238447727452],[-79.470817009511791,43.632436676923909],[-79.470764910249258,43.632493777198448],[-79.470758510638419,43.632500777069225],[-79.47070270981321,43.632554876980642],[-79.470641610537001,43.632599076999874],[-79.470555109546638,43.632651177738602],[-79.470544010168837,43.632654677242314],[-79.470448409914368,43.632685277509538],[-79.470351810272561,43.632713277570687],[-79.470194209485953,43.632749377836859],[-79.4699985094189,43.632799477262019],[-79.46981040956814,43.632849477569863],[-79.469785410244882,43.632858977689871],[-79.469688410270891,43.632895577883957],[-79.469607109292411,43.632937677085977],[-79.469546109853951,43.632989877391992],[-79.469469809710063,43.63306397795246],[-79.469446509580607,43.633088277577663],[-79.469398609457471,43.633138177838838],[-79.469360410266503,43.633208377550396],[-79.469324809881925,43.63327257722279],[-79.469296809584776,43.633344677295845],[-79.469273909246368,43.633416877645359],[-79.469243409607557,43.63348707762848],[-79.469210309638626,43.633547277464913],[-79.469189109583624,43.633572877335631],[-79.469167109140059,43.633599377505426],[-79.469136709694396,43.633629977306128],[-79.469121309260544,43.633645477460959],[-79.469111609426818,43.63365737742923],[-79.469082209161158,43.633693377731987],[-79.469070509547223,43.633707677230589],[-79.469037409750413,43.633761777869893],[-79.469036709312832,43.633763177394371],[-79.468985709207686,43.633862378044782],[-79.468985309824959,43.633863177947809],[-79.468957410104323,43.633918677564935],[-79.46894170916957,43.63393797792186],[-79.468927610029084,43.633958477302293],[-79.46890731003279,43.633973177552654],[-79.468880709614311,43.634004977569376],[-79.468850909790163,43.634026577980272],[-79.468816509195477,43.634045877436598],[-79.468796309026075,43.634057277850047],[-79.468782109584907,43.634065277882776],[-79.468736709963451,43.634092477693706],[-79.468514910045982,43.63422417820059],[-79.468478509447579,43.634245777933103],[-79.468430009296014,43.634274177677604],[-79.468401809262232,43.634287878142246],[-79.468340809032597,43.634321877694688],[-79.468056009946608,43.634476377438766],[-79.467894809198825,43.63455927818331],[-79.467783309063321,43.634612777604019],[-79.46778270915982,43.634613177493264],[-79.467707108839349,43.63465137796949],[-79.467652409768746,43.634676677742675],[-79.467590208915738,43.634698377835015],[-79.467503009639032,43.634738077915344],[-79.467435809007767,43.634765178212106],[-79.467353709501865,43.634794078012504],[-79.467264109468317,43.634824877971916],[-79.467169309590147,43.634856678105329],[-79.467129708861222,43.63486997769315],[-79.467047509657789,43.634898878290869],[-79.467027609177364,43.634906578192485],[-79.466930509302969,43.63494407763924],[-79.466788709464183,43.634996477814376],[-79.466684109414487,43.635032578438796],[-79.466654708961485,43.635045078202637],[-79.466594508834348,43.635070478421035],[-79.466552208391633,43.63509037814255],[-79.46654110909715,43.635096877761406],[-79.466499908371318,43.635121078346479],[-79.46646510841434,43.635148177567288],[-79.466442108691879,43.635162478121572],[-79.46643020893346,43.635169878012817],[-79.466420708319475,43.635182477885749],[-79.46640280874901,43.635206077692615],[-79.466377909101183,43.635242178482812],[-79.466335609013456,43.635330778378716],[-79.466298208313617,43.6354319783267],[-79.46627820929649,43.635486178171426],[-79.466258309470518,43.635536778012835],[-79.466250809078716,43.635549477765686],[-79.466235908890937,43.635576577990776],[-79.466201009076912,43.635600078306375],[-79.466153709416744,43.635612678610308],[-79.466143909400529,43.635615477867852],[-79.466076608957735,43.635634378232304],[-79.465942208885792,43.635688578174054],[-79.465407008685432,43.635874577771894],[-79.465344808975559,43.635896378591511],[-79.46525770800794,43.635926978043685],[-79.465224008771912,43.635938877854905],[-79.465145608267591,43.635966678243413],[-79.465073507922071,43.635991978476284],[-79.46500210821965,43.636014977846308],[-79.464884308780043,43.636053378263789],[-79.464777308981823,43.636087678722625],[-79.464675208636493,43.636118378012021],[-79.464540808666726,43.636156278655861],[-79.464438808441599,43.636190578414634],[-79.464329208271863,43.636223078315879],[-79.464266808266302,43.636236678511601],[-79.46425460805655,43.636239378074222],[-79.464194207783834,43.636253478309996],[-79.464177407952235,43.636257378396365],[-79.464166408837158,43.63625837875599],[-79.46409780785136,43.636264678707086],[-79.463993307607268,43.636268178743343],[-79.463886208624345,43.636269978660657],[-79.463794207685552,43.636268178328429],[-79.463728808117452,43.636265878224819],[-79.46368960833621,43.636264478453349],[-79.463602508079532,43.636260878730042],[-79.463513008056822,43.636253578629564],[-79.463468307618584,43.636247378190838],[-79.463408407895159,43.636239078795441],[-79.463351208453417,43.636230078259885],[-79.463251707570763,43.636215578730869],[-79.46319200812998,43.636222778154753],[-79.463112307784129,43.636224577937107],[-79.46304010775097,43.636229978477779],[-79.462996708137297,43.636239278462256],[-79.462926508381059,43.636254378851746],[-79.4629057079229,43.636258878308226],[-79.462793708201261,43.636284078269945],[-79.462584707617765,43.636341878656744],[-79.462393008281168,43.636385178894763],[-79.462233707472734,43.636424978725806],[-79.462146607580806,43.636451978620002],[-79.462049507215156,43.636482678831307],[-79.461823007899994,43.636560378557391],[-79.461678607678024,43.636607278563325],[-79.461591507320719,43.63663077816777],[-79.461559107474997,43.636643378644237],[-79.461514007269244,43.63667477827191],[-79.461499406874722,43.636684978794591],[-79.461454607049887,43.636710278882283],[-79.461370307654661,43.636749778730199],[-79.461335107362331,43.636766278184837],[-79.461260407765437,43.636791578452311],[-79.461218107789932,43.636809578971274],[-79.461140907622507,43.636833078836382],[-79.461048807200342,43.636851078341124],[-79.460954307501197,43.636870978249412],[-79.460829807024297,43.636883578410256],[-79.460732807552716,43.636892578963845],[-79.460645607338677,43.636899778382428],[-79.460561006897777,43.636919678554669],[-79.460461207613776,43.636952279074173],[-79.460327207272357,43.637005878892886],[-79.460317106862973,43.637009978508864],[-79.460068107497236,43.637116478644415],[-79.459886406633913,43.637208578272926],[-79.459717107101582,43.637306178706609],[-79.459657307257402,43.63735127883735],[-79.459617507059903,43.637389278670135],[-79.459570206320748,43.637414578516385],[-79.45952290677269,43.637439878407754],[-79.459453207404962,43.637459678396247],[-79.459316306465581,43.637488578874013],[-79.459194306329962,43.637508379200973],[-79.459089807210631,43.637537278429818],[-79.4589692072215,43.637560078640583],[-79.458845806767485,43.63758327875351],[-79.458807006740741,43.637591878834442],[-79.458612706532946,43.63763457916351],[-79.458599407005849,43.637637479241924],[-79.458358006485867,43.637686179169549],[-79.458198706949872,43.637718678894743],[-79.457994606409869,43.63775657848057],[-79.457976105942365,43.637759278572226],[-79.457897606407428,43.637770979049648],[-79.457897006864812,43.637771078766463],[-79.457743206610573,43.637798079185487],[-79.457564005967342,43.637825078986943],[-79.457369905785001,43.637848478585873],[-79.457208106313331,43.637875579270414],[-79.457073806467903,43.637897279341054],[-79.456819906334189,43.637913378883916],[-79.456653706260568,43.637924778806294],[-79.456635705573476,43.637925979295822],[-79.456493906386982,43.637936779330047],[-79.456371405375648,43.63794677852642],[-79.456339605822791,43.637949379441004],[-79.45617780592751,43.63796017890575],[-79.456063305489508,43.637965479199671],[-79.455919006269085,43.637963679202116],[-79.455787106172863,43.637963578639003],[-79.455667605922784,43.637965379494233],[-79.455513306259093,43.63796527870236],[-79.455306806208753,43.637968878823621],[-79.455085306020337,43.637965079247486],[-79.454936205166362,43.637954578795586],[-79.454878705283562,43.637950578950075],[-79.454619604871155,43.637934478610653],[-79.454614905477143,43.637934179027731],[-79.454408405493893,43.637925079417975],[-79.454149605637042,43.637910479283761],[-79.453873305678982,43.63788507958489],[-79.453711205544025,43.637869679183893],[-79.453587105378077,43.637857878759569],[-79.453540105513468,43.637855778959874],[-79.453462704741654,43.637852378731097],[-79.453400505357664,43.637834279026222],[-79.45335570538326,43.63781617948505],[-79.45329790464784,43.637777778731888],[-79.453295104449126,43.637775679241649],[-79.453238805018245,43.637732079241168],[-79.453186504420231,43.63771397887389],[-79.453141805143929,43.637695879185607],[-79.453084504834266,43.637681379420279],[-79.453052204346434,43.637681379372218],[-79.453012305041952,43.637681378731926],[-79.452980004554021,43.637681378661568],[-79.452942705252511,43.637681279307081],[-79.452880404164574,43.637706579323307],[-79.452855504247978,43.637715679022634],[-79.452813204656977,43.637731879107555],[-79.452785804151318,43.637735479182261],[-79.452731104893516,43.637748079200804],[-79.452693704357074,43.637760778702045],[-79.452663904866355,43.637764379063469],[-79.452629104674713,43.637765278781593],[-79.452596704588771,43.637766179133976],[-79.452532904593667,43.637751179019183],[-79.452457305314084,43.637733578774274],[-79.452314505140734,43.6377135790163],[-79.451805404126375,43.637647479499542],[-79.451702804322053,43.637634179397224],[-79.451660205056612,43.637626978886082],[-79.450886004565078,43.63749687910569],[-79.450762803727997,43.637476179195495],[-79.45049400383931,43.63742367897121],[-79.449669703418337,43.637262579005167],[-79.449176303718502,43.637175779419508],[-79.44805210302421,43.636964079319739],[-79.447873702882049,43.63693117899944],[-79.44777600300867,43.636917279662406],[-79.447718702939738,43.636912578889572],[-79.447604003237615,43.636901779380558],[-79.447459603297048,43.636892479275822],[-79.447416003400107,43.636890379318785],[-79.447362003309749,43.636887779393206],[-79.447302503572047,43.636887778851253],[-79.447230302602904,43.636893878797018],[-79.447114002996983,43.636886178834459],[-79.447084902924672,43.636884278846452],[-79.446929103033128,43.636885778896271],[-79.4468829028676,43.636888879702333],[-79.446782203294092,43.636895479143199],[-79.446587402881732,43.636909879270043],[-79.446384902150101,43.636928379052215],[-79.446209003063373,43.636944479586845],[-79.446106302695725,43.636951779377441],[-79.445968203167965,43.636954779064403],[-79.445874801972863,43.636954779365681],[-79.445763402210204,43.636947579642438],[-79.44566510246112,43.636935579707107],[-79.445547103009915,43.636910579072037],[-79.445419401861869,43.636872379474347],[-79.445224402360466,43.636800878877253],[-79.444718302286958,43.636591179245414],[-79.4442089020895,43.636385079523151],[-79.443935401171643,43.636265279674454],[-79.443730601488127,43.63617837894661],[-79.443591401975155,43.63611397956192],[-79.443458701441926,43.636060379259696],[-79.443313001761183,43.636003178965986],[-79.44315410142859,43.635949579490692],[-79.442991900934601,43.635893579312018],[-79.442805201307337,43.635835179350991],[-79.442544701035018,43.635756479411938],[-79.442346501615432,43.635701679197361],[-79.442066400679423,43.635627179584311],[-79.441799401432348,43.635537779271203],[-79.441530801021386,43.635440078946985],[-79.441078701358094,43.635257779390464],[-79.440756100799575,43.635118378958445],[-79.440448100836448,43.634983678889384],[-79.439981400541555,43.634783779215212],[-79.439506200000778,43.634573279269773],[-79.439148800540451,43.634413479222097],[-79.439056399612369,43.634372079334277],[-79.439022399906605,43.634356379281286],[-79.43870789947448,43.634210779459643],[-79.438638300185133,43.634167779113142],[-79.438538999834407,43.634098679260447],[-79.438412300133237,43.634020379276592],[-79.438367299330849,43.633992879304799],[-79.438346900093038,43.633980378921976],[-79.438289899777899,43.633946579096914],[-79.438253999892439,43.633937879041724],[-79.438232799998119,43.633932779179169],[-79.438183400100897,43.633908579436088],[-79.438183399370558,43.633906979518045],[-79.438144199311338,43.633884678755408],[-79.438015099122694,43.633811079541843],[-79.437940099621898,43.633749879085507],[-79.437835499420103,43.633695279476221],[-79.437492199460848,43.63351007883859],[-79.437452899182546,43.633487179368196],[-79.437412698994422,43.633463779380826],[-79.437358098943804,43.633435679201384],[-79.437326299266374,43.633394378931015],[-79.437280799736669,43.633339779180226],[-79.437256399176491,43.63330547881197],[-79.437248998959234,43.633295179019939],[-79.437178598909057,43.633255478867667],[-79.437069499877268,43.633171178914615],[-79.436939898927506,43.633081879044965],[-79.436760298692022,43.632941279295487],[-79.43663029970142,43.632819779016835],[-79.436473799255651,43.632682179291649],[-79.436332398859193,43.63256697878613],[-79.436224899417269,43.632484678626],[-79.436160799167212,43.632442179174724],[-79.436066499550734,43.632389978895795],[-79.435998598849295,43.632357078530298],[-79.43588729861294,43.63232687897095],[-79.435817498369602,43.632304878832763],[-79.435742098682439,43.632273378824109],[-79.43571229906749,43.632249979068639]],[[-79.419724194103949,43.630314279377835],[-79.420100193979039,43.630199479506842],[-79.420109193935161,43.63019457939172],[-79.420202793783318,43.630144179172966],[-79.422859194975487,43.629945478871221],[-79.423327994340411,43.629911978995189],[-79.424456895178523,43.629814379166753],[-79.424574394895089,43.629807079105284],[-79.424777395495397,43.629791779030285],[-79.425211295055675,43.629755379034926],[-79.425476595986595,43.629736278650633],[-79.425602695845697,43.629729578967151],[-79.425738995198287,43.629734979015637]],[[-79.419724194103949,43.630314279377835],[-79.419933393460781,43.630281579132877],[-79.420116393857157,43.630247979663267],[-79.420340994015262,43.630234278929841],[-79.421085293902408,43.63018367895824],[-79.422080593991708,43.630101378987277],[-79.423223495212355,43.630006979600623],[-79.42332799460975,43.629999179053925],[-79.423459094168692,43.629989479347032],[-79.42465529498925,43.629900679099435],[-79.425219095258811,43.629867678613763],[-79.425385495716597,43.629872879329184],[-79.425610595429589,43.629894078943643],[-79.425755995142651,43.629909279308784],[-79.425802595376695,43.629914179230134],[-79.425938695462079,43.629933178660991],[-79.425961395835941,43.629936379325287],[-79.426006995778664,43.629948478785487],[-79.426018195143428,43.629953078835733],[-79.426048395944647,43.629965578712465],[-79.426093996004127,43.629980578670377],[-79.426145095455382,43.629998678614001],[-79.426196095701911,43.630013778954599],[-79.426272695495285,43.630039078831899],[-79.426304595626107,43.630047779302487],[-79.426332895636065,43.63005547872195],[-79.426429196202307,43.630083078631706],[-79.426856196389238,43.630219179010957],[-79.427119295668746,43.630306578569041],[-79.427169495356594,43.630324379299196],[-79.427218195760631,43.630341778956719],[-79.427218795968983,43.630341978700699],[-79.427313596196285,43.6303849790391],[-79.427322496341645,43.630388979190549],[-79.427403096233036,43.630434179266743],[-79.427493096194723,43.630473378675497],[-79.427582295551673,43.630514479397618],[-79.427656996522884,43.630541679470006],[-79.427760896022207,43.630578578852983],[-79.427836195892567,43.630609079088494],[-79.427871596380186,43.630620579202024],[-79.427927896097046,43.630632179041228],[-79.427975496595792,43.630634378724707],[-79.428059695975833,43.630630178695995],[-79.428102496541456,43.630634179474768],[-79.428135996015484,43.630640879151287],[-79.428169495974188,43.630655178983481],[-79.428199495750576,43.630671079047218],[-79.428227196194754,43.63068877874607],[-79.42824479596058,43.630702078887865],[-79.428255996317375,43.630710578857546],[-79.428282496205227,43.630731579078898],[-79.428310195915813,43.630750878602292],[-79.428314195775826,43.630753078999625],[-79.428345995836608,43.630770978902326],[-79.428388696707387,43.630792779396295],[-79.428437096288206,43.630809579201944],[-79.428491396484972,43.63083057921785],[-79.428561796878739,43.630859179239337],[-79.428619296690357,43.630879978874574],[-79.428740696819162,43.630921678629193],[-79.428742196044425,43.630922178798222],[-79.428931296074495,43.630989779395868],[-79.429148996108921,43.631067679342657],[-79.429295396916828,43.631115279155324],[-79.42945409628777,43.631163079114287],[-79.429663897018031,43.631221878965093],[-79.429782396509054,43.631238878810386],[-79.429865596843527,43.631242379051081],[-79.429915096618856,43.631244479227739],[-79.429916697001119,43.631244679229617],[-79.430014796634154,43.631255778976353],[-79.430164897262628,43.631280279107671],[-79.430390897179137,43.631313078599618],[-79.430473596789099,43.631327379432904],[-79.430508697472604,43.631333578911224],[-79.43057939737507,43.631337478661472],[-79.430583097358806,43.631337679084268],[-79.430696197122387,43.631334778783767],[-79.430789297028227,43.63133487922213],[-79.431017497559139,43.631314478657167],[-79.431136797072142,43.631300279126265],[-79.431270197570228,43.631301378770182],[-79.431402097524511,43.631336079454755],[-79.431565297008589,43.631374778615069],[-79.431566297789203,43.631375079053001],[-79.43156809798397,43.631375278888605],[-79.431658897291925,43.631390279213697],[-79.431747997270463,43.631394378864194],[-79.431857497202259,43.631394479334723],[-79.43196579780556,43.631391178846791],[-79.432087697770555,43.631372178704147],[-79.432233697467467,43.631321279356428],[-79.432247997082868,43.631319178801611],[-79.432326297552166,43.631308078558959],[-79.432409398081361,43.631311878784693],[-79.432416197709813,43.6313121789278],[-79.432426197274978,43.631315179177058],[-79.432503197516624,43.631337779026673],[-79.432519697261156,43.631342578563029],[-79.432636497330833,43.631376579181499],[-79.43287219776623,43.631438878541772],[-79.433055997540734,43.63149397866048],[-79.433265898296625,43.631604479133095],[-79.433394098259882,43.631661378829392],[-79.433506397659016,43.631689578567382],[-79.433883798120149,43.631788579395227],[-79.434089098756374,43.631846378878578],[-79.434262298634792,43.631894978969285],[-79.43432909779203,43.631919278792871],[-79.434395897934337,43.631944979308194],[-79.434470198371386,43.631971978929457],[-79.434540698852942,43.63200037906698],[-79.434618698325949,43.632030079125833],[-79.434683698727497,43.632051678685301],[-79.434783997932911,43.632080078958758],[-79.434878598613281,43.632112478758124],[-79.434941798593513,43.632132778723928],[-79.434982498681663,43.63214757878373],[-79.434999398112325,43.632153779203172],[-79.435026098584416,43.632158678625068],[-79.435122798425738,43.632176678687401],[-79.435203998660754,43.632192279157884],[-79.435319198109539,43.632209179265473],[-79.435463998642845,43.632228178818842],[-79.435583798810114,43.632240978896299],[-79.43571229906749,43.632249979068639]],[[-79.419724194103949,43.630314279377835],[-79.41957449406209,43.630308179221501],[-79.419404593239577,43.630332279504394],[-79.418585793184548,43.630463879133004],[-79.417840593237273,43.630585179619629],[-79.416603492417408,43.630769279328611],[-79.416129292834611,43.630851879864615],[-79.415883291795581,43.630895679610532],[-79.415689592873335,43.630933579546181],[-79.415325992663284,43.63099207932882],[-79.415223792672109,43.63100147978934],[-79.414920692012402,43.631039380128051],[-79.414810191935473,43.631052279739706],[-79.414747191930743,43.63106857928593],[-79.414704392382419,43.631084079324189],[-79.414671192245706,43.631102979936962],[-79.414614092427328,43.631133979469205],[-79.414553492418548,43.631157179427532],[-79.414496492507197,43.631178679442428],[-79.414445591856946,43.631196880146625],[-79.41442699189659,43.631200479335561],[-79.414387791583721,43.631205979598903],[-79.414338991639099,43.631205979953222],[-79.414300891468741,43.631213879972321],[-79.4141921923773,43.631241380135059],[-79.413980292298675,43.631302379523554],[-79.41376299160882,43.631359379951199],[-79.413632591839999,43.631388880184417],[-79.413450591348493,43.631445980220171],[-79.413309291518118,43.631493279920228],[-79.413138091233122,43.6315483795996],[-79.412980491473775,43.631597579507421],[-79.412779491636783,43.631660579703031],[-79.412502291236294,43.631740279707003],[-79.412200791783306,43.63183277983989],[-79.411714391235918,43.631986279718959],[-79.411385691690143,43.632084679751763],[-79.411176491040891,43.632153580236917],[-79.411122091083925,43.632170280324928],[-79.411111291106096,43.632180180415062],[-79.411100390804279,43.632197880017216],[-79.411084091549327,43.63221168014735],[-79.411064990678653,43.632229479909853],[-79.41104329146583,43.6322392804571],[-79.411007990553657,43.632253080149816],[-79.410972591361372,43.632264879847185],[-79.41090199038608,43.632290480002929],[-79.410826591362209,43.632323579933882],[-79.410732290576391,43.632338579929794],[-79.410723990893743,43.632340180025487],[-79.410585890962523,43.632345380357627],[-79.410530090438002,43.632341880327516],[-79.410457590902411,43.632330780354827],[-79.410306690374028,43.63230838002265],[-79.410215190722269,43.632299779779451],[-79.410154491221405,43.632299779987967],[-79.410105791174601,43.632300580578423],[-79.410054690972544,43.632304079990512],[-79.409970291089508,43.632313580218444],[-79.409915691133307,43.632316080626353],[-79.409868090750336,43.63231788021006],[-79.409815790146212,43.632312680062725],[-79.409770690903244,43.632304879934068],[-79.409723190792562,43.632291180480927],[-79.409672090491327,43.632268779929724],[-79.409630491180764,43.632239579818503],[-79.409574590591149,43.632191379805221],[-79.409488090925649,43.632112380227198],[-79.409441489981646,43.632085579781865],[-79.409391589868974,43.632063180366899],[-79.40932619085288,43.632045180149767],[-79.409268490199523,43.632038780569609],[-79.409225190204296,43.63203737994175],[-79.40916699050824,43.632043479781402],[-79.409112290093944,43.632056379706619],[-79.409040990114065,43.632081280431812],[-79.408982790089766,43.632109679891137],[-79.408934090340892,43.6321423801054],[-79.408836890841286,43.632202980629721]],[[-79.43571229906749,43.632249979068639],[-79.435694999438809,43.632236278982631],[-79.435660999199413,43.632200678839901],[-79.435600699221311,43.632127978798017],[-79.435568698539171,43.63207867864655],[-79.435555599107033,43.632056178561243],[-79.435495198981386,43.631952478723598],[-79.435463198610194,43.631912778732385],[-79.435425498282342,43.631866179300999],[-79.435346298670865,43.631812678991523],[-79.435135198520186,43.631698878576245],[-79.435033198725662,43.631645978630267],[-79.434953998335331,43.631613078993666],[-79.434887998769554,43.631592479007786],[-79.434831399044157,43.631573278633113],[-79.434740898257587,43.631547179032097],[-79.434640898900668,43.631516978495952],[-79.43457489828252,43.631486778970583],[-79.434429697913671,43.631424979111159],[-79.434338798766746,43.631389578570477],[-79.434242898753183,43.631352278559838],[-79.434157998123155,43.631322078947491],[-79.434076998033959,43.631272679000006],[-79.43399969804338,43.6312177792149],[-79.43386849781065,43.631112778636719],[-79.433665098086834,43.631005878662535],[-79.433621097572626,43.630993978954223]],[[-79.386631483396542,43.638752082112688],[-79.387092384060495,43.638658582344],[-79.387557184115607,43.638569882286106],[-79.387772184060168,43.638506181934922],[-79.388118984161977,43.638415782496899],[-79.389366084790112,43.63814748181543],[-79.390071184734708,43.637974682205481],[-79.391018885654532,43.637771882331812],[-79.391471184589221,43.637684082125453],[-79.391824285797981,43.637603281797588],[-79.391885285011639,43.637591882093353],[-79.392003585744931,43.637569682260775],[-79.392070985911943,43.637558981992711],[-79.392293285014233,43.637509782224612],[-79.392609885156347,43.637442781707186],[-79.39286048553943,43.637396281446648],[-79.393061386028535,43.637363381576847],[-79.393400285958492,43.637325281489311],[-79.39426558662133,43.63722548137865],[-79.394541785652478,43.637200782010297],[-79.394808585776588,43.637161581617086],[-79.395012986537026,43.637121581374728],[-79.39530018596858,43.637054181828717],[-79.395660286400542,43.636956781485488],[-79.396236187146044,43.636762381327806],[-79.396735986388421,43.636593081953322],[-79.396868087325217,43.636532981096217],[-79.397067586638286,43.636459781678241],[-79.397331787555288,43.636330681508625],[-79.398083786799248,43.635719481513576],[-79.398140886985047,43.635659781209704],[-79.398531187274443,43.635513981230403],[-79.399078787744614,43.635224980901114],[-79.399591887717847,43.634954180823897],[-79.399644287816258,43.634928281303914],[-79.400478787620699,43.634516780606241],[-79.400608987595348,43.634472681101599],[-79.400625887944258,43.63446298077691],[-79.400651388404285,43.634448481155964],[-79.400787887533383,43.634391780639341],[-79.40103598779281,43.63429718100668],[-79.401135688498172,43.634258481320344],[-79.401198587666016,43.6342378809303],[-79.401250888595428,43.63422158131295],[-79.401253388594114,43.634220880935331],[-79.40131138835936,43.634206981306832],[-79.401339288661489,43.634205180999075],[-79.40136598833304,43.634203581193979],[-79.401421688527194,43.634201880651041],[-79.401427588032192,43.634201981218972],[-79.401472688435703,43.63420278134712],[-79.401555688599416,43.634226980672857],[-79.401689788468445,43.634279281194928],[-79.40172018813773,43.634292680577374],[-79.401752188136854,43.634306780644707],[-79.401765888719069,43.63431278055576],[-79.401975488446126,43.634531980656654],[-79.402045388908363,43.634605181279859],[-79.402109288916606,43.634665280812477],[-79.402146088849918,43.634697781382094],[-79.402206887995177,43.634751381262213],[-79.402266888342936,43.634809281018185],[-79.402437687925172,43.634974080594972],[-79.402486488341395,43.635012281328969],[-79.402540888859647,43.635040981259081],[-79.402594388900781,43.635064081243691],[-79.402635788187624,43.635091880995908],[-79.402654288941434,43.635129080898565],[-79.40266568874236,43.635166180683889],[-79.402689588634075,43.635194280928886],[-79.402709787992393,43.635210480814798],[-79.402733188046298,43.635217781163369],[-79.402768388840315,43.63522128137744],[-79.402820688796297,43.635217381061643],[-79.402876788270248,43.635213681152706],[-79.402935288794026,43.635205181444896],[-79.402999189248831,43.635201081039661],[-79.403077388943004,43.635196481123458],[-79.403125188982969,43.635187580669779],[-79.403217188950549,43.635157781105292],[-79.4033482886922,43.635113281219446],[-79.40348358925246,43.635065780736461],[-79.403558689342944,43.635037080806832],[-79.40360378859512,43.635018280481681],[-79.403642088304807,43.635002380716337],[-79.403705089230968,43.634876980860426],[-79.403780388402424,43.634718380409126],[-79.403846188239584,43.634556781235325],[-79.403894189272251,43.634457681142919],[-79.403946188891055,43.634380380870674],[-79.403974888696794,43.634338680337493],[-79.404033688901947,43.634274280541248],[-79.404076388947189,43.634232380729756],[-79.404095288651106,43.634213880786952],[-79.404129688932073,43.63419178102847],[-79.404143088537026,43.634183181181385],[-79.404194988862884,43.634147980329772],[-79.40426338928917,43.634109381114556],[-79.40433168947078,43.634071680554115],[-79.404409588428308,43.634038080939433],[-79.404483388472514,43.634009380997817],[-79.404562589369974,43.633983680477158],[-79.404655488642135,43.633959880771151],[-79.404731288672806,43.633940281004591],[-79.404785189520197,43.633926281152021],[-79.404832489219132,43.633921880725623],[-79.404923088971046,43.633913480734272],[-79.405002589130206,43.633902580227371],[-79.405048189493471,43.633900780872388],[-79.405099489384284,43.633898680831514],[-79.405145989328545,43.633897480461002],[-79.405279689793417,43.633899380850728],[-79.405282289725079,43.633899380700441],[-79.405292888670104,43.633899580981328],[-79.405470788850408,43.633909080749497],[-79.405502889121621,43.63391098046673],[-79.405682888873983,43.633921580468474],[-79.405863689980052,43.633941381073505],[-79.406038789929411,43.633963280219596],[-79.4062009895747,43.633987180895225],[-79.406368989285625,43.634022480324973],[-79.406522689283264,43.63405358054429],[-79.406686289527926,43.634093080774257],[-79.406771689825121,43.634118980231413],[-79.40692678937171,43.63416358081615],[-79.407130289380746,43.634226780372359],[-79.407332389844555,43.634288980512288],[-79.407511689636024,43.634343980756391],[-79.407624089893758,43.634378180418672],[-79.407715189719596,43.634404080218879],[-79.407760690017,43.634411380808267],[-79.407810589804001,43.634414580949297],[-79.407863190472256,43.634415580620285],[-79.407944390088062,43.634411580674239],[-79.408037490686056,43.63439238035162],[-79.408039789962658,43.634391980919531],[-79.408186489989021,43.634359980498417],[-79.408263390699943,43.634346681016652],[-79.408325190137248,43.634335681023991],[-79.408344590745287,43.634332180765618],[-79.408391489913754,43.634334280425563],[-79.408448190674321,43.634349180717038],[-79.408480789878467,43.634263280687662],[-79.408552490772351,43.634176880633575],[-79.408644790057224,43.634010080433264],[-79.408691089913674,43.633835980308284],[-79.408732090087057,43.633114180441957],[-79.408746789954449,43.632970380174157],[-79.408832289967208,43.632224380063484],[-79.408859290772085,43.631767379704542],[-79.408865990650327,43.63173698010737],[-79.408890290115309,43.631717780376164],[-79.409640690301387,43.631287480335217],[-79.409675990214495,43.631269880041195],[-79.409744390814268,43.631255480265594],[-79.410120691183053,43.631192579855863],[-79.411402991245524,43.630977980101775],[-79.413505091900277,43.630620679477857],[-79.41355359164956,43.63061827935865],[-79.413604291964447,43.630621579279861],[-79.413674892000572,43.630626379379748],[-79.413727791282355,43.630637679479776],[-79.413815991413557,43.630669779454387],[-79.413896091664242,43.630702580014486],[-79.413921691335204,43.630713079274145],[-79.413967992005922,43.630773979705971],[-79.414079791724788,43.630935679632927],[-79.414121992313341,43.630996779375359],[-79.414150691782908,43.631027179939387],[-79.414179291682487,43.631044879534734],[-79.414223392264674,43.631060879778829],[-79.41426969167415,43.631065679500992],[-79.414311591627254,43.631067379801785],[-79.414379292331489,43.631062979783664],[-79.414383091551613,43.63106267954015],[-79.41440719181233,43.631057279487578],[-79.41443139158649,43.631051779304201],[-79.41448639199541,43.631037379429209],[-79.414516192451444,43.631018779805132],[-79.414542191946396,43.630977579543817],[-79.414541791810123,43.630970279639101],[-79.414541692123933,43.630967779339571],[-79.414540092283147,43.630938279607207],[-79.414493191634307,43.630793879822704],[-79.414448891357878,43.630657380080535],[-79.414503292015269,43.63058647987539],[-79.414522691459624,43.630561179201791],[-79.41456189258632,43.630509879222281],[-79.41458139140272,43.630484479311569],[-79.414616792247799,43.630459779296828],[-79.414637892197931,43.630444979512468],[-79.414645491409956,43.630439679379933],[-79.415273591701506,43.630345079276076],[-79.415545392858519,43.630304179649187],[-79.417607793150324,43.629962779567563],[-79.417806192785406,43.629962879532883],[-79.418264993461349,43.62988947935537],[-79.418417693612767,43.629937479260846],[-79.418489792803911,43.629960179759664],[-79.418855993233379,43.629905879341791],[-79.419655293096326,43.630226479614429],[-79.419724194103949,43.630314279377835]],[[-79.379094881172151,43.640297483073049],[-79.379708081118849,43.640108283028141],[-79.380050381499686,43.639924882600909],[-79.380183481555562,43.639862982825079],[-79.381006282552335,43.639704382406471],[-79.382776882756858,43.639391982955509],[-79.382762083150638,43.639444982502077]],[[-79.376886781308045,43.64100618342475],[-79.374640779879073,43.641830083672353],[-79.373379279887359,43.642271483866693],[-79.369351878747366,43.643675984435752],[-79.368386378051881,43.64402998371483],[-79.367111277793114,43.644413484529316],[-79.367087677464227,43.644423183973082],[-79.367050978245985,43.644438184418938],[-79.366694077684784,43.644566084613459],[-79.366603777552115,43.644628484603466],[-79.366509677508716,43.644666684358789],[-79.366389878001797,43.644700784583875],[-79.366292477598847,43.644711884074162],[-79.366087277967893,43.644774284662702],[-79.365611378086811,43.644949784483124],[-79.365508577300304,43.644997784795656],[-79.365417277247246,43.645023984789454],[-79.365348677779039,43.645038284402297],[-79.365052177412807,43.645140184283335],[-79.364995177881568,43.645208284524522],[-79.364692377892354,43.645313884920078],[-79.364600077679924,43.645342384699589],[-79.364475177314119,43.645339384161225],[-79.363636476925436,43.645630884700992],[-79.362592476282586,43.646011584350447],[-79.361932176336893,43.646243584591851],[-79.361810676489128,43.646291884583889],[-79.361703576218758,43.646346584561833],[-79.361613277024247,43.646418085282143],[-79.36154597676321,43.646500785253714],[-79.361495576484472,43.646579184574477],[-79.361283776719205,43.64701398460992],[-79.361062875742149,43.647454785317919],[-79.360997776322321,43.647536884880537],[-79.360917875987042,43.647606785259455],[-79.360802875848506,43.64767738478939],[-79.360791776775287,43.647682284885207],[-79.360733276183325,43.647707884775457],[-79.360658475944788,43.647736984719749],[-79.360583776800752,43.647763985255118],[-79.36043717573601,43.647820085487623],[-79.360319376207528,43.647861684773289],[-79.360169976480378,43.647909485266531],[-79.360004276514786,43.647963885525641],[-79.35998037626014,43.647971785213791],[-79.35992927571283,43.647987685475357],[-79.359793576332962,43.648029885165087],[-79.359658476261089,43.648073585543031],[-79.359503275974248,43.648121284954655],[-79.359388376021528,43.648162885122382],[-79.359323775321982,43.648183584901297],[-79.359244675227515,43.648206485619241],[-79.35914127551564,43.648235585725061],[-79.358988976236262,43.648268785087886],[-79.358853976304616,43.648303984949578],[-79.358718875761255,43.648341384998481],[-79.358575275402316,43.648389185322515],[-79.358530275278355,43.648404385648689],[-79.358359675579422,43.648461885186521],[-79.35778787513155,43.648655085815626],[-79.357761075582246,43.648664085612637],[-79.357723575905496,43.648676585243258],[-79.357557975516769,43.648731985207327],[-79.357507275790994,43.648747485103442],[-79.357388375459934,43.648783885433623],[-79.357218874906152,43.648833785109069],[-79.357129775387335,43.648858685124971],[-79.357052275090098,43.648871085402888],[-79.35695857491838,43.64887778515898],[-79.356895674819825,43.648877185557815],[-79.356828174769589,43.64887378586495],[-79.356764475610092,43.648868285119221],[-79.356699075319227,43.648860285425783],[-79.356598574787654,43.648845485390616],[-79.356489574967654,43.648824585792077],[-79.356398374545307,43.648807385513891],[-79.356300174995951,43.648784685210231],[-79.356216875019584,43.648757485622234],[-79.356084975009665,43.648709385494698],[-79.355981675154311,43.648657085193122],[-79.355884174307761,43.648596585632902],[-79.355669174774846,43.648441985236694],[-79.355508675185433,43.648316685932961],[-79.355430574194202,43.648267385541146],[-79.355349374151587,43.648218285066648],[-79.355204775042495,43.64812658530267],[-79.355101874205701,43.648064385424306],[-79.355087274170913,43.648055585623005],[-79.35499837434314,43.648005385532308],[-79.354932374923209,43.647978185096278],[-79.354854874847717,43.647942685245063],[-79.354777874753822,43.647913885704185]],[[-79.354777874753822,43.647913885704185],[-79.35477467431808,43.647917585842329],[-79.354708074148903,43.647994785357724],[-79.354661074023269,43.648029885719993],[-79.354545373794267,43.64810128561232],[-79.354601073839007,43.648172285299793],[-79.354654074614444,43.648248585232949],[-79.354708974136571,43.648296885823079],[-79.354749674338322,43.648429185409675],[-79.354772675066584,43.648438685366727],[-79.354812774249268,43.648451285487141],[-79.35485217485973,43.64846268581686],[-79.354901274661302,43.648483586008645],[-79.354931674425004,43.648496685775442],[-79.35495537450349,43.648511585277284],[-79.354981574763869,43.64852828600489],[-79.355002074081014,43.64854368554321],[-79.355006074241587,43.648556785416751],[-79.35500727468704,43.648587585644641],[-79.355001474438026,43.648607885508468],[-79.354992075110786,43.648617985488706],[-79.35497897456986,43.648628985695908],[-79.354976874571292,43.648630685662006],[-79.354958174528349,43.648643385635346],[-79.354945374846864,43.648645085830211],[-79.35494147438483,43.648645085553575],[-79.354937174192031,43.648645085265571],[-79.354927874802684,43.648645085599135],[-79.354911574748172,43.64864338534138],[-79.354897574543855,43.648643285264363],[-79.354890574497745,43.648642485236671],[-79.354880074694506,43.64863478543208],[-79.354866174116978,43.648624685750228],[-79.35485447389415,43.648616985841826],[-79.354824873998894,43.648596085104614],[-79.354818374307754,43.648591585646265],[-79.354816474810335,43.648590886037148],[-79.354798574619593,43.648584785757841],[-79.354782274270192,43.648575485488351],[-79.354773674767273,43.648570085367567],[-79.354767174694629,43.648566085278574],[-79.354747374403431,43.648560185877955],[-79.35473917465815,43.648555885514895],[-79.354724074105249,43.648550785978465],[-79.354714674458094,43.648549985799761],[-79.354695175028311,43.648543985495031],[-79.354645074606552,43.648528585641579],[-79.354634374980662,43.648525285697268],[-79.354580674500639,43.64851758559923],[-79.354538774313653,43.6485158853299],[-79.354506074089102,43.648514185675154],[-79.354484374968024,43.648512185751372],[-79.354467674549454,43.648510685492461],[-79.354418673941254,43.648510685662991],[-79.354378974538989,43.648518185544148],[-79.354315974895641,43.648525785616457],[-79.354233174410808,43.648543385588582],[-79.354168074717492,43.648558885577884],[-79.354161974631154,43.648560285960073],[-79.35414847454463,43.648566085700928],[-79.354107174572661,43.648583886009277],[-79.354083774426897,43.648601685795285],[-79.354054574397338,43.648632985920123],[-79.354036273671909,43.648656685918091],[-79.35403117476757,43.648663385955011],[-79.354020574290885,43.648698085814381],[-79.354014674427916,43.648733685683197],[-79.354014574715535,43.648769185928145],[-79.354015573722222,43.648772585251763],[-79.354022674613319,43.648796285397424],[-79.354013173983304,43.648842285702472],[-79.353998774848151,43.648911985314086],[-79.353984973949025,43.649058285988808],[-79.353985574646515,43.649065986115296],[-79.353989974274569,43.649127986113101],[-79.353975574019245,43.64916808531796],[-79.353959474433026,43.649197885555985],[-79.353929073762771,43.649241885869927],[-79.353901873705226,43.649281085413357],[-79.353898674370683,43.649285885348185],[-79.353877074225352,43.64934148598708],[-79.353875374721397,43.649348785700013],[-79.353868073765,43.649379085908471],[-79.353864473696859,43.649428285906289],[-79.353864373704795,43.649458385683999],[-79.35386437439837,43.649459285352791],[-79.353864273977933,43.649491685568456],[-79.353871374542393,43.64952278560191],[-79.353881973796746,43.649548685449339],[-79.353904974499102,43.649605685767334],[-79.35392627410495,43.649653685978528],[-79.353984874483999,43.649757285807667],[-79.354014374448965,43.64980548583506],[-79.354036373892484,43.649841586233862],[-79.354054173838932,43.64987398596562],[-79.354054874697496,43.649874885693912],[-79.354073674342757,43.649899885602714],[-79.354121774616246,43.649942685551814],[-79.354157373866116,43.649971185984917],[-79.354212574305578,43.650020485742743],[-79.35434067474803,43.650148285627616],[-79.354347774335395,43.650155285732581],[-79.354164374957477,43.650215286017001],[-79.354051574798802,43.65025228551108],[-79.353711674603716,43.650357486095842],[-79.353208574255206,43.650497785564674],[-79.352634773836471,43.650673286026247],[-79.352575874158504,43.650691086221691],[-79.352162474161503,43.650816786263448],[-79.352140473964354,43.650821586248952],[-79.351997673395346,43.650852885713256],[-79.351800574221301,43.650902785739113],[-79.351619673629301,43.650937786095064],[-79.351456373332553,43.650965486203354],[-79.351413773832007,43.650972686442088],[-79.351201773195413,43.650999686451406],[-79.351041673170343,43.650997885785841],[-79.350896173958901,43.650991386292283],[-79.350803573553279,43.650975186140116],[-79.350625272761093,43.650930986463877],[-79.350563073117613,43.650915586149033],[-79.350267373136816,43.650833386040418],[-79.350188772601911,43.650811586173702],[-79.350129172872229,43.650795086109326],[-79.350089673440536,43.650854386626925],[-79.350079873235828,43.65086908621943],[-79.350014072737537,43.650967885771209],[-79.349974373713309,43.650977386249778],[-79.349933573302394,43.650968386275437],[-79.349931372653359,43.650967886600384],[-79.349897473343162,43.650956086658823],[-79.34984657290741,43.650948386307959],[-79.349771173381313,43.650939986432483],[-79.349700973368002,43.650948286229067],[-79.349625973443779,43.6509705866034],[-79.349603872602671,43.650978185896662],[-79.349542772482692,43.650999286160754],[-79.349434772948953,43.651036586231392],[-79.349306673204268,43.651084785874495],[-79.349167772582888,43.651139686270405],[-79.349125972465202,43.651157086361408],[-79.349079972551266,43.651179786422361],[-79.349042273047075,43.651202486570462],[-79.348988972821502,43.651233486180004],[-79.348986872892283,43.651235085991118],[-79.348938872867691,43.651271986150633],[-79.348926772583127,43.651284685989602],[-79.348908473206095,43.651303886325998],[-79.348886972285896,43.651347186214288],[-79.348869672751931,43.651381886033825],[-79.348868573417761,43.651384186415164],[-79.3488680730092,43.651385986510554],[-79.34884957220838,43.651448586617931],[-79.348821273177137,43.651525886349191],[-79.348807172440488,43.651570986419102],[-79.348781872344844,43.651692386777057],[-79.348769372731454,43.651740085965727],[-79.348751473125375,43.651808186832625],[-79.348757373264149,43.651856286672306],[-79.34875727248243,43.651897886346838],[-79.34877517277944,43.651945986743144],[-79.348790172563568,43.651987486405183],[-79.348817072731777,43.652033386549718],[-79.348835072982155,43.652059686480129],[-79.348850073441682,43.652081486062812],[-79.34895817313938,43.652221586568736],[-79.349075173100985,43.652344086460914],[-79.34916227292598,43.652425086660493],[-79.349240373501857,43.652492886872203],[-79.349312473641191,43.652549786975243],[-79.349384673424652,43.652602386237305],[-79.34944477295312,43.652633086233784],[-79.349504872643308,43.652665886561941],[-79.349516773656788,43.652674086571153],[-79.349567973310599,43.652709686636982],[-79.349613073552987,43.652753486445334],[-79.349632473681439,43.652781886740605],[-79.349642973241146,43.65279718625704],[-79.349646373286873,43.652818686931163],[-79.349649273443305,43.652837586895842],[-79.349654873606084,43.652873686675925],[-79.349652073576891,43.652978287008281],[-79.349765172884119,43.653149086700317],[-79.350062573055467,43.653476486680738],[-79.350238973938616,43.653680087130958],[-79.350495874032077,43.653711486591682],[-79.350681673516974,43.653806686860321]],[[-79.354777874753822,43.647913885704185],[-79.35474307432213,43.647900885611136],[-79.354702874534595,43.647884385819502],[-79.354651275003718,43.647863185186708],[-79.354565774620951,43.647817785026589],[-79.354534974385771,43.647780885495834],[-79.354507374023285,43.647747785704567],[-79.354433673904097,43.647659785518691],[-79.3544091741676,43.647630485485493],[-79.354403469379832,43.647622925420606]],[[-79.400091090533138,43.663506685825517],[-79.399047090224144,43.663684785824913],[-79.398975590102083,43.663764486439298],[-79.398743590187792,43.663902585914023],[-79.3984480891598,43.664117986370272],[-79.396961688806755,43.664443586015949],[-79.39602878849756,43.664636686327334],[-79.395745788446661,43.664695286240239],[-79.395701589047235,43.664704386746401],[-79.394219988045947,43.665012286214292],[-79.39384688828271,43.665034486203062],[-79.393769088326835,43.66504128644317],[-79.393744588122942,43.664890086839719],[-79.393735288725964,43.66486788704303],[-79.393714088894455,43.664828486594359],[-79.393674188883608,43.66478578665685],[-79.393650688692006,43.664760086669446],[-79.393636687881326,43.664731086200291],[-79.393596788047617,43.664621686715876],[-79.393552288693044,43.664520786391691],[-79.393484288051212,43.664384086485732],[-79.393430288802307,43.664278086239044],[-79.3933810877556,43.664178986497319],[-79.393350588468095,43.664131086806236],[-79.393312988501535,43.664074686255958],[-79.393281387594996,43.664001986108197],[-79.393246188314635,43.663935286116001],[-79.393188088052241,43.663846086722664],[-79.393135188078702,43.663781886480336],[-79.393078688333205,43.663726986378975],[-79.393006788386884,43.663656686760227],[-79.392963287878914,43.663613886692431],[-79.392923287695112,43.663570186811867],[-79.392862087772727,43.663504986654821],[-79.392812588163721,43.663446786832566],[-79.392766687609281,43.663401286779923],[-79.392738387724336,43.663374786736398],[-79.392707787928643,43.66335668681112],[-79.392638787242873,43.663337386362819],[-79.392562187272461,43.66331768622959],[-79.392512687818652,43.663306486158859],[-79.392458488116446,43.663299586362037],[-79.392269687186555,43.663336186144953],[-79.392015988188575,43.663388186402479],[-79.391981487492032,43.663318686745761],[-79.390651787577596,43.663592786420487],[-79.387186586172859,43.664376186542079],[-79.385535586207453,43.664733987354474],[-79.385456085694088,43.664751987436389],[-79.385417586067547,43.664760687462049],[-79.385183485257485,43.664813686579691],[-79.38499938593921,43.664855287426271],[-79.38495898492036,43.664864487061273],[-79.38459928519508,43.664945887294031],[-79.383952484835604,43.665074587315395],[-79.383845385766918,43.665097287271031],[-79.381432184599831,43.665627886993768],[-79.381402285086381,43.665634487127683],[-79.38096268461679,43.665731087246208],[-79.378350383952068,43.666293887320926],[-79.377418683801324,43.666493687757445],[-79.377316183300493,43.666512587269956],[-79.377270783725919,43.666514688005641],[-79.377192383647653,43.666524387865621],[-79.37698978332007,43.666481187566482],[-79.376803383397061,43.66645588765698],[-79.376666183154995,43.666440887395808],[-79.376504282739617,43.666437487845656],[-79.376314382885383,43.666438187710078],[-79.376162683416922,43.666446887846014],[-79.37603778330157,43.666463687488807],[-79.375856282859857,43.666494887982239],[-79.375718582313624,43.666531487434447],[-79.375535282239667,43.666600187441119],[-79.375351382142284,43.666678687664422],[-79.375171582715595,43.666774188135015],[-79.375005082946501,43.666880987708765],[-79.374861482612616,43.666987287947642],[-79.374687282442011,43.667103088157333],[-79.373781281602561,43.667303888074478],[-79.372211581624555,43.667643488184247],[-79.370917480939283,43.667917188093796],[-79.37010178122145,43.668097988352677],[-79.36975518110971,43.668174788349759],[-79.36956528096475,43.668183188110739],[-79.369418180606758,43.668170788129345],[-79.368942280515242,43.66827428836357],[-79.367718079886913,43.668555088273173],[-79.366526579506058,43.668826788592547]],[[-79.363081878262278,43.6671106881113],[-79.362967078233297,43.667054588242287],[-79.362752978163769,43.666930788731023],[-79.362160478105821,43.666566788086264],[-79.361931978701222,43.666495388315418],[-79.361501378109068,43.666381188752396],[-79.360975477442636,43.666157488496658],[-79.36089937800277,43.666088488802266],[-79.360817678231371,43.666014588805247],[-79.360776778330489,43.66612418820592],[-79.360686878300953,43.66611148841703],[-79.360634678165965,43.666109288358506],[-79.360591177800856,43.666102988413186],[-79.360565077944557,43.666111288233935],[-79.360454777302365,43.66616378835166],[-79.360422777513108,43.666193288459077],[-79.360390877418752,43.666193188553791],[-79.360321277256745,43.666197388714323],[-79.360106578180535,43.666205488072997],[-79.360042978227398,43.66621008829182],[-79.359932578159203,43.666217888647623],[-79.359773077667427,43.666228288609624],[-79.359671477198788,43.666234488606683],[-79.359619278158689,43.666246988049153],[-79.35957867790701,43.666267988109141],[-79.359552478199845,43.666293288147116],[-79.359540777262623,43.666320588478484],[-79.359526177149931,43.666371088568994],[-79.359526077578337,43.666406888788401],[-79.359520177429886,43.666478488258861],[-79.359508177923246,43.666640588880846],[-79.359493377272528,43.666752188394618],[-79.359478677489292,43.666848988854476],[-79.359458277063283,43.666905788287295],[-79.359417577094121,43.666964688957471],[-79.359385477183253,43.667032088540537],[-79.35930977739973,43.667151988470273],[-79.359266078080992,43.667236088318603],[-79.359216577203242,43.667318188631121],[-79.359213677339426,43.667349789014047],[-79.359178777683127,43.667387588521308],[-79.359045277280615,43.667408488739568],[-79.358847977265583,43.667439788334669],[-79.358618777443979,43.667473188526429],[-79.35828807742638,43.667531788770248],[-79.357873076683731,43.667596288315302],[-79.357678477254012,43.667627588566475],[-79.357555376966985,43.667647389189739],[-79.357481076635651,43.667436988342274],[-79.357456877032291,43.667393888446163],[-79.357392776900198,43.667355488698647]],[[-79.363081878262278,43.6671106881113],[-79.365626779654647,43.666544788294139],[-79.366190079744257,43.667924888407349],[-79.366526579506058,43.668826788592547]],[[-79.363081878262278,43.6671106881113],[-79.363510179048887,43.668132888190655],[-79.36365297864478,43.668475488455975],[-79.36383947930905,43.668947589138426],[-79.364015579084395,43.669380688783839],[-79.364284479077995,43.669321188479095],[-79.366526579506058,43.668826788592547]]]},"properties":{"OBJECTID":1,"OGF_ID":154614431,"TRAIL_NAME":"Trans Canada Trail","TRAIL_ASSO":"Trans Canada Trail","PERMITTED_":"Hiking or Walking, Cycling, Cross Country Skiing","DESCRIPTIO":"The Trans Canada Trail (TCT) runs between the Manitoba border across to North Bay, down to Hamilton and from Windsor to Ottawa. The TCT in Ontario connects approximately 150 communities through a collection of linked multi use trails; giving preference t","ON_ROAD_FL":"Unknown","LOCATION_A":"Within 10 metres","Trail_Leng":3612.0999999999999,"Shape_Leng":45.854257579600002,"Shape_Length":17912.540079544262}}]
}